PK;NOMBRE;DESCRIPCION-ENTIDAD;HORARIO;EQUIPAMIENTO;TRANSPORTE;DESCRIPCION;ACCESIBILIDAD;CONTENT-URL;NOMBRE-VIA;CLASE-VIAL;TIPO-NUM;NUM;PLANTA;PUERTA;ESCALERAS;ORIENTACION;LOCALIDAD;PROVINCIA;CODIGO-POSTAL;BARRIO;DISTRITO;COORDENADA-X;COORDENADA-Y;LATITUD;LONGITUD;TELEFONO;FAX;EMAIL;TIPO;
1958;"Centro Cultural San Juan Bautista (Ciudad Lineal)";"";"De lunes a viernes, de 10 a 14 y de 15 a 18 horas.Veranos, de lunes a viernes, de 10 a 14 horas.Fuera de este horario el centro permanecerá abierto durante la celebración de las actividades que se programen.";"Sala de exposicionesSalón de actos / auditorio (aforo 276)8 aulasZona wifi Sala de lectura y estudio: Durante el mes de julio, de 10 a 14 horas.";"Metro: Avenida de la Paz (línea 4)Bus: 53";"";"1";"http://www.madrid.es/sites/v/index.jsp?vgnextchannel=bfa48ab43d6bb410VgnVCM100000171f5a0aRCRD&vgnextoid=618b1e79ee71c010VgnVCM1000000b205a0aRCRD";"SAN NEMESIO";"CALLE";"V";"4";"";"";"";"";"MADRID";"MADRID";"28043";"SAN JUAN BAUTISTA";"CIUDAD LINEAL";"444202";"4478162";"40.45224737965276";"-3.6580402287911937";"914 157 705";"";"ccsanjuanbautista@madrid.es";"/contenido/entidadesYorganismos/SalasEstudioLectura"; 
8637537;"Sala de Estudio del Centro Social Clara Campoamor (Retiro)";"";"De lunes a domingo, de 9 a 21 horas.";"Puestos de lectura:  165 Zona wifi";"Metro: Pacífico (línea 1 y 6)Bus: 24, 37, 54, 57, 141";"Acceso por plaza de Daoíz y Velarde.";"1";"http://www.madrid.es/sites/v/index.jsp?vgnextchannel=bfa48ab43d6bb410VgnVCM100000171f5a0aRCRD&vgnextoid=ad345442c6452510VgnVCM2000000c205a0aRCRD";"DAOIZ Y VELARDE";"PLAZA";"V";"2";"";"";"";"";"MADRID";"MADRID";"28007";"PACIFICO";"RETIRO";"442527";"4472618";"40.402190438836826";"-3.6772826298329093";"915 132 834";"";"";"/contenido/entidadesYorganismos/SalasEstudioLectura"; 
4813751;"Sala de estudio Alfonso XII (Fuencarral - El Pardo)";"";"De lunes a viernes de 9 a 21 horasSábados, domingos y festivos de 9:30 a 20 horas24, 31 de diciembre y 5 de enero de 9:30 a 14:30 horas25 de diciembre, el 1 y 6 de enero cerradoTeléfono: 913 762 060";"Puestos de lectura: 18";"Bus: 601";"";"1";"http://www.madrid.es/sites/v/index.jsp?vgnextchannel=bfa48ab43d6bb410VgnVCM100000171f5a0aRCRD&vgnextoid=2e7a8917a2058110VgnVCM2000000c205a0aRCRD";"MIRA EL RIO";"CALLE";"V";"4";"";"";"";"";"MADRID";"MADRID";"28048";"EL PARDO";"FUENCARRAL-EL PARDO";"434214";"4485937";"40.519673311658686";"-3.7779055687726535";"913 762 060";"";"";"/contenido/entidadesYorganismos/SalasEstudioLectura"; 
4813737;"Sala de estudio Alfredo Kraus (Fuencarral - El Pardo)";"";"De lunes a sábado de 9:30 a 14 horas y de 16 a 20:30 horasDomingos y festivos cerradoJulio y agosto de de lunes a viernes de 9 a 19 horasSeptiembre de lunes a sábado de 9:30 a 14 y de 16 a 20 Horas24 y 31 de diciembre cerradoConsultar al teléfono: 91 376 70 85";"Puestos de lectura: 113";"Metro: Pitis (línea 7)Bus: 42, 49, 64";"";"1";"http://www.madrid.es/sites/v/index.jsp?vgnextchannel=bfa48ab43d6bb410VgnVCM100000171f5a0aRCRD&vgnextoid=2ec62928b1058110VgnVCM2000000c205a0aRCRD";"PRADERA DE VAQUERIZAS";"GLORIETA";"V";"9";"";"";"";"";"MADRID";"MADRID";"28035";"MIRASIERRA";"FUENCARRAL-EL PARDO";"438848";"4482487";"40.49082275610172";"-3.7216054330053647";"913 767 085 (Centro Cultural)";"";"";"/contenido/entidadesYorganismos/SalasEstudioLectura"; 
8041076;"Sala de estudio Almirante Churruca (Latina)";"";"De lunes a viernes, de 9 a 21:30 horas.Sábados, de 9 a 13:30 horas (excepto julio, agosto y septiembre) Verano: De lunes a viernes de 9 a 20:30 horas.Cerrado de 1 a 25 agosto.";"Puestos de lectura: 120.Wifi.";"Metro: Aviación Española (línea 10).Bus: 17, 34.Cercanías Renfe: Las Águilas (línea C5).";"";"1";"http://www.madrid.es/sites/v/index.jsp?vgnextchannel=bfa48ab43d6bb410VgnVCM100000171f5a0aRCRD&vgnextoid=3ab67c6cd874d410VgnVCM1000000b205a0aRCRD";"FUENTE DEL TIRO";"CALLE";"V";"72";"1.ª";"";"";"";"MADRID";"MADRID";"28024";"LAS AGUILAS";"LATINA";"433786";"4470559";"40.382992678408066";"-3.7800773802118117";"915 090 581 / 917 053 794";"";"";"/contenido/entidadesYorganismos/SalasEstudioLectura"; 
10415134;"Sala de estudio Aravaca (Moncloa-Aravaca)";"";"De lunes a viernes, de 8:30 a 21:30 horas.Sábados, domingos y festivos de 10 a 21:30 horas.";"";"Bus: 160, 161.";"Puestos de lectura: 32.Zona wifi.";"1";"http://www.madrid.es/sites/v/index.jsp?vgnextchannel=bfa48ab43d6bb410VgnVCM100000171f5a0aRCRD&vgnextoid=4b308cfd9a8ec510VgnVCM2000001f4a900aRCRD";"ZARZA";"CALLE";"V";"20";"";"";"";"";"MADRID";"MADRID";"28023";"ARAVACA";"MONCLOA-ARAVACA";"433370";"4478937";"40.45843103553325";"-3.785855667139094";"917 400 880 / 917 400 882";"";"";"/contenido/entidadesYorganismos/SalasEstudioLectura"; 
4815112;"Sala de estudio Carril del Conde (Hortaleza)";"";"Horario habitual: De lunes a domingos y festivos, de 9 a 22 horas. Julio y agosto cerrado.";"Puestos de lectura: 210Wifi";"Metro: Arturo Soria (línea 4)Bus: 9, 72, 73";"";"1";"http://www.madrid.es/sites/v/index.jsp?vgnextchannel=bfa48ab43d6bb410VgnVCM100000171f5a0aRCRD&vgnextoid=cdc10e4d44558110VgnVCM1000000b205a0aRCRD";"CARRIL DEL CONDE";"CALLE";"V";"57";"";"";"";"ubicada en el Centro Cultural Carril del Conde";"MADRID";"MADRID";"28043";"CANILLAS";"HORTALEZA";"444516";"4479119";"40.46088946853693";"-3.654432812836867";"917 161 240";"";"";"/contenido/entidadesYorganismos/SalasEstudioLectura"; 
6953036;"Sala de estudio Centro Cultural Juvenil de Usera";"";"De lunes a viernes, de 9 a 14 y de 16 a 21 horas.Agosto cerrado.";"Puestos de lectura: 20Zona wifi";"Metro: Usera (línea 6)Bus: 55, 60";"";"1";"http://www.madrid.es/sites/v/index.jsp?vgnextchannel=bfa48ab43d6bb410VgnVCM100000171f5a0aRCRD&vgnextoid=9749b68f981ce310VgnVCM1000000b205a0aRCRD";"CUESTA";"CALLE";"V";"4";"";"";"";"En el Centro Cultural Juvenil de Usera";"MADRID";"MADRID";"28026";"MOSCARDO";"USERA";"439956";"4471270";"40.389856130874605";"-3.7074718790538297";"913 920 541";"";"";"/contenido/entidadesYorganismos/SalasEstudioLectura"; 
4812338;"Sala de estudio Centro Dotacional Integrado de Arganzuela";"";"De lunes a sábado, de 8:30 a 21 horas. Agosto cerrado.";"Puestos de lectura: 164.";"Metro: Palos de la Frontera (línea 3).Bus: 19, 247, 45, 47, 8, 86, 55, 6, E1, 59, 85.Cercanías RENFE: Delicias (líneas C1, C7, C10).Bicimad: Estación 120 (calle Palos de la Frontera, 40).";"";"1";"http://www.madrid.es/sites/v/index.jsp?vgnextchannel=bfa48ab43d6bb410VgnVCM100000171f5a0aRCRD&vgnextoid=217024521f048110VgnVCM1000000b205a0aRCRD";"CANARIAS";"CALLE";"V";"17";"";"";"";"Ubicada en el Centro Dotacional Integrado Arganzuela";"MADRID";"MADRID";"28045";"PALOS DE MOGUER";"ARGANZUELA";"440979";"4472617";"40.40207279862862";"-3.6955325387824014";"915 063 610";"";"";"/contenido/entidadesYorganismos/SalasEstudioLectura"; 
4815363;"Sala de estudio Centro Juvenil El Sitio de mi Recreo (Villa de Vallecas)";"Edad de 14 a 30 años.";"Consultar telefonicamente";"";"Metro: Villa de Vallecas (línea 1)Bus: 58";"Puestos de lectura: 40";"0";"http://www.madrid.es/sites/v/index.jsp?vgnextchannel=bfa48ab43d6bb410VgnVCM100000171f5a0aRCRD&vgnextoid=af2192cfd9558110VgnVCM1000000b205a0aRCRD";"REAL DE ARGANDA";"CALLE";"V";"39";"";"";"";"";"MADRID";"MADRID";"28031";"SANTA EUGENIA";"VILLA DE VALLECAS";"447634";"4470066";"40.37953682427198";"-3.616901585603186";"913 052 448";"";"";"/contenido/entidadesYorganismos/SalasEstudioLectura"; 
10510680;"Sala de estudio Centro Sociocultural El Greco (Latina)";"";"Lunes a viernes, de 9 a 21:30 horas. Sábados de 9:30 a 13:30 horas.Julio y del 27 al 31 agosto, de lunes a viernes, de 9 a 20:30 horas.Cerrado del 1 al 26 de agosto.";"Puestos de lectura: 37.Zona wifi.";"Metro: Lucero (línea 6), Batán (línea 10).Bus: 33, 36, 39, 65.";"";"1";"http://www.madrid.es/sites/v/index.jsp?vgnextchannel=bfa48ab43d6bb410VgnVCM100000171f5a0aRCRD&vgnextoid=bbad79e15d7ee510VgnVCM2000001f4a900aRCRD";"EL GRECO";"CALLE";"V";"29";"";"";"";"";"MADRID";"MADRID";"28024";"LAS AGUILAS";"LATINA";"433786";"4470559";"40.382992678408066";"-3.7800773802118117";"914 793 261 / 914 793 150";"";"";"/contenido/entidadesYorganismos/SalasEstudioLectura"; 
4815051;"Sala de estudio Centro Sociocultural Moratalaz";"";"Lunes a viernes, de 9 a 14 y de 15 a 21 horas. Sábados, de 10 a 14 y de16 a 22 horas.Domingos y festivos, de 10 a 14 horas. Julio: De lunes a viernes, de 9 a 14 y de 15 a 21 horas. Sábados, de 10 a 14  y de 16 a 22 horas.Domingos y festivos: Cerrado. Agosto: Cerrado.";"Puestos de lectura: 82Zona wifi";"Metro: Pavones (línea 9)Bus: 142, 144, 8, 20, 32";"";"1";"http://www.madrid.es/sites/v/index.jsp?vgnextchannel=bfa48ab43d6bb410VgnVCM100000171f5a0aRCRD&vgnextoid=32c2b51383558110VgnVCM1000000b205a0aRCRD";"FUENTE CARRANTONA";"CALLE";"V";"10";"";"";"";"";"MADRID";"MADRID";"28030";"PAVONES";"MORATALAZ";"445953";"4472221";"40.39883403330691";"-3.636898142855895";"915 887 435 / 915 880 459";"";"";"/contenido/entidadesYorganismos/SalasEstudioLectura"; 
8026323;"Sala de estudio Centro Sociocultural Siena (Ciudad Lineal)";"";"Lunes a viernes de 9 a 21 horas.Agosto cerrado.";"Puestos de lectura: 24Zona wifi";"Metro: Quintana (línea 5)Bus: 21, 38";"";"0";"http://www.madrid.es/sites/v/index.jsp?vgnextchannel=bfa48ab43d6bb410VgnVCM100000171f5a0aRCRD&vgnextoid=e4e458caf0f1d410VgnVCM1000000b205a0aRCRD";"SIENA";"CALLE";"V";"52";"";"";"";"UBICADO EN EL CENTRO CULTURAL SIENA";"MADRID";"MADRID";"28027";"QUINTANA";"CIUDAD LINEAL";"444709";"4476040";"40.43316516575713";"-3.651876723048774";"914 039 011";"";"";"/contenido/entidadesYorganismos/SalasEstudioLectura"; 
4814996;"Sala de estudio Centro Sociocultural Talleres de Creatividad (Puente de Vallecas)";"";"Jueves a viernes, de 13:30 a 17 horasAgosto cerrado";"";"Metro: Nueva Numancia, Portazgo (línea 1)Bus: 10, 24, 57, 103, 111, 310";"Puestos de lectura: 22Zona wifi";"0";"http://www.madrid.es/sites/v/index.jsp?vgnextchannel=bfa48ab43d6bb410VgnVCM100000171f5a0aRCRD&vgnextoid=ada6f5fea2558110VgnVCM1000000b205a0aRCRD";"SIERRA CARBONERA";"CALLE";"V";"74";"";"";"";"Ubicada en el Centro Cultural Talleres de Creatividad";"MADRID";"MADRID";"28053";"SAN DIEGO";"PUENTE DE VALLECAS";"443532";"4471268";"40.39009728291889";"-3.665329063724782";"917 570 189 / 917 570 240";"";"";"/contenido/entidadesYorganismos/SalasEstudioLectura"; 
5709413;"Sala de estudio Centro cultural El Torito (Moratalaz)";"";"De octubre a junio, de lunes a viernes, de 9 a 13:30 y de 15:30 a 21:30 horas. Sábados, de 9 a 13:30 y de 16:30 a 21:30. Julio, de lunes a viernes, 9 a 13:30 y de 17 a 19:30 horas. Cerrado 16 a 31 julio y todo agosto. Septiembre, de lunes a viernes de 9 a 13:30 y de 17 a 19:30 horas. Sábados de 9:30 a 13:30 y de 16:30 a 21:30.";"";"Metro: Artilleros (línea 9)Bus: 32, 71";"Puestos de lectura: 24";"1";"http://www.madrid.es/sites/v/index.jsp?vgnextchannel=bfa48ab43d6bb410VgnVCM100000171f5a0aRCRD&vgnextoid=3874efd1977f8210VgnVCM1000000b205a0aRCRD";"MORATALAZ";"AVENIDA";"V";"130";"";"";"";"";"MADRID";"MADRID";"28030";"VINATEROS";"MORATALAZ";"445141";"4473033";"40.40609591857167";"-3.646536107063507";"913 287 385";"";"";"/contenido/entidadesYorganismos/SalasEstudioLectura"; 
8000760;"Sala de estudio Centro cultural Lope de Vega (Puente de Vallecas)";"";"De lunes a viernes, de 8:30 a 21:30 horas, salvo festivosAgosto, de lunes a viernes no festivos, de 8:30 a 14:30 horas.";"Puestos de lectura: 32Zona wifi";"Renfe: Asamblea de Madrid-EntrevíasBus: 24, 102, 103, 111,144";"";"1";"http://www.madrid.es/sites/v/index.jsp?vgnextchannel=bfa48ab43d6bb410VgnVCM100000171f5a0aRCRD&vgnextoid=a190e189b66dc410VgnVCM2000000c205a0aRCRD";"CONCEJO DE TEVERGA";"CALLE";"V";"1";"2.ª Aula 5";"";"";"Ubicada en el centro Cultural Lope de Vega";"MADRID";"MADRID";"28053";"ENTREVIAS";"PUENTE DE VALLECAS";"442974";"4470850";"40.386293684801885";"-3.6718658006661906";"917 570 580";"";"";"/contenido/entidadesYorganismos/SalasEstudioLectura"; 
4816516;"Sala de estudio Centro cultural Rafael Altamira, antes Palacete Quinta del Berro (Salamanca)";"";"De lunes a viernes, de 9 a 21:30 horas. Sábados, de 9:30 a 21:30 horas. Domingos, de 10:30 a 20:30 horas.Verano, de lunes a domingo, de 10.30 a 19.30 horas.";"";"Bus: 15, 28, 71";"Puestos de lectura: 40Zona wifi";"1";"http://www.madrid.es/sites/v/index.jsp?vgnextchannel=bfa48ab43d6bb410VgnVCM100000171f5a0aRCRD&vgnextoid=1947371b6e958110VgnVCM1000000b205a0aRCRD";"ENRIQUE D'ALMONTE";"CALLE";"V";"1";"";"";"";"ubicada en el Centro Cultural Quinta del Berro";"MADRID";"MADRID";"28028";"FUENTE DEL BERRO";"SALAMANCA";"443760";"4474815";"40.42206608753629";"-3.662956288628484";"915 570 807 / 915 570 808";"";"";"/contenido/entidadesYorganismos/SalasEstudioLectura"; 
4814317;"Sala de estudio Centro sociocultural Cánovas del Castillo (Usera)";"";"De lunes a viernes de 9 a 14 y de 15 a 21:30 horas. Sábados de 9 a 14 horas.Agosto cerrado.";"Puestos de lectura: 44Zona wifi";"Metro: Almendrales (línea 3)Bus: 47, 247, 6, 78, 18, 22, 59, 76, 79, 85, 86, 23";"";"1";"http://www.madrid.es/sites/v/index.jsp?vgnextchannel=bfa48ab43d6bb410VgnVCM100000171f5a0aRCRD&vgnextoid=b10c750b1c058110VgnVCM2000000c205a0aRCRD";"JULIO AGUIRRE";"CALLE";"V";"10";"";"";"";"y 12";"MADRID";"MADRID";"28026";"ALMENDRALES";"USERA";"440579";"4470866";"40.38626143332092";"-3.7000825227295007";"915 005 489";"";"";"/contenido/entidadesYorganismos/SalasEstudioLectura"; 
8053162;"Sala de estudio Centro sociocultural Teresa de Calcuta (Barajas)";"";"De lunes a sábado, de 9:15 a 21:30 horas.Domingos y festivos, de 10:15 a 13:45 y de 16:15 a 19:45 horas.Julio y agosto:De lunes a viernes, de 9:15 a 21:30 horas.Sábados, domingos y festivos, de 10:15 a 13:45 horas., Semana San Isidro, mayo, junio y septiembre: De lunes a sábados, de 9:15 a 21:30 horas.Domingos y festivos, de 10:15 a 20:30 horas.";"";"Metro: Alameda de Osuna (línea 5)Bus: 101, 112, 114, 115, 151";"Puestos de lectura: 55Zona wifi";"1";"http://www.madrid.es/sites/v/index.jsp?vgnextchannel=bfa48ab43d6bb410VgnVCM100000171f5a0aRCRD&vgnextoid=cdee424fc257d410VgnVCM1000000b205a0aRCRD";"NAVIO";"PLAZA";"V";"4";"";"";"";"";"MADRID";"MADRID";"28042";"ALAMEDA DE OSUNA";"BARAJAS";"450174";"4478461";"40.455320414179944";"-3.587638080172316";"913 295 920";"";"";"/contenido/entidadesYorganismos/SalasEstudioLectura"; 
8071924;"Sala de estudio Ciudad Pegaso (San Blas - Canillejas)";"";"Lunes a domingo de 9:30 a 14:45 y de 16:15 a 21:30 horas.";"";"Bus: 77";"Puestos de lectura: 32Zona wifi";"1";"http://www.madrid.es/sites/v/index.jsp?vgnextchannel=bfa48ab43d6bb410VgnVCM100000171f5a0aRCRD&vgnextoid=df3576e159ead410VgnVCM1000000b205a0aRCRD";"SÉPTIMA";"AVENIDA";"V";"11";"";"";"";"ubicado en el Centro Cultural Ciudad Pegaso";"MADRID";"MADRID";"28022";"REJAS";"SAN BLAS-CANILLEJAS";"449282";"4477702";"40.448428925762634";"-3.5980969888187393";"913 209 770 / 917 413 092";"";"";"/contenido/entidadesYorganismos/SalasEstudioLectura"; 
4815414;"Sala de estudio El Madroño (Vicálvaro)";"";"Sábados, domingos y festivos de 9 a 14 y de 16 a 20 horas. Cerrada 25 diciembre y 6 enero.";"";"Metro: Vicálvaro (línea 9)Bus: 4, 100, 106, 130, E3";"Puestos de lectura: 30Zona wifi";"1";"http://www.madrid.es/sites/v/index.jsp?vgnextchannel=bfa48ab43d6bb410VgnVCM100000171f5a0aRCRD&vgnextoid=62c0c0e48a558110VgnVCM1000000b205a0aRCRD";"VILLARDONDIEGO";"CALLE";"V";"36";"";"";"";"";"MADRID";"MADRID";"28032";"CASCO H.VICALVARO";"VICALVARO";"448357";"4472920";"40.405292721436055";"-3.6086161200017157";"917 753 140";"";"";"/contenido/entidadesYorganismos/SalasEstudioLectura"; 
5753713;"Sala de estudio Fernando Lázaro Carreter (Carabanchel)";"";"Lunes a sábado, de 9 a 21:30 horas. Domingos, de 9 a 13:30 horasAgosto cerrado.";"Puestos de lectura: 40";"Bus: 116";"";"1";"http://www.madrid.es/sites/v/index.jsp?vgnextchannel=bfa48ab43d6bb410VgnVCM100000171f5a0aRCRD&vgnextoid=b0bb1c35f67a9210VgnVCM1000000b205a0aRCRD";"VERDAD";"CALLE";"V";"29";"";"";"";"";"MADRID";"MADRID";"28019";"OPAÑEL";"CARABANCHEL";"439136";"4471474";"40.39164343238081";"-3.717140510927299";"914 690 895";"";"cclazaro@madrid.es";"/contenido/entidadesYorganismos/SalasEstudioLectura"; 
6924985;"Sala de estudio Francisco José González Tejera (Hortaleza)";"";"Horario habitual: de lunes a domingos y festivos, de 9 a 22 horas.Horario verano: de lunes a domingos y festivos, de 9 a 22 horas.";"Puestos de lectura: 56Wifi";"Metro: Parque de Santa María (línea 4)Bus: 72, 87, 107";"";"1";"http://www.madrid.es/sites/v/index.jsp?vgnextchannel=bfa48ab43d6bb410VgnVCM100000171f5a0aRCRD&vgnextoid=dd6f094110a5e310VgnVCM1000000b205a0aRCRD";"SANTA VIRGILIA";"CALLE";"V";"15";"";"";"";"ubicada en el Centro Cultural Hortaleza";"MADRID";"MADRID";"28033";"PINAR DEL REY";"HORTALEZA";"445577";"4480884";"40.47685971480448";"-3.6420589279590887";"913 821 493";"";"";"/contenido/entidadesYorganismos/SalasEstudioLectura"; 
5753557;"Sala de estudio Galileo (Chamberí)";"";"De lunes a domingo, de 8:30 a 21:30 horas.";"Puestos de lectura: 87";"Metro: Moncloa (líneas 3, 6) , Quevedo (línea 2)Bus: 2, 16, 61BICIMAD: 127 (calle Fernando el Católico, 19)";"";"1";"http://www.madrid.es/sites/v/index.jsp?vgnextchannel=bfa48ab43d6bb410VgnVCM100000171f5a0aRCRD&vgnextoid=08a9964bd47a9210VgnVCM1000000b205a0aRCRD";"GALILEO";"CALLE";"V";"39";"";"";"";"";"MADRID";"MADRID";"28015";"ARAPILES";"CHAMBERI";"439741";"4476139";"40.43371190964793";"-3.7104543597957758";"915 913 901";"";"";"/contenido/entidadesYorganismos/SalasEstudioLectura"; 
8071938;"Sala de estudio José Luis López Vázquez (San Blas - Canillejas)";"";"De lunes a viernes, de 9 a 14 horas y de 15 a 21 horas.Agosto cerrado.";"";"Bus: 77";"Puestos de lectura: 152Zona wifi";"1";"http://www.madrid.es/sites/v/index.jsp?vgnextchannel=bfa48ab43d6bb410VgnVCM100000171f5a0aRCRD&vgnextoid=9db676e159ead410VgnVCM1000000b205a0aRCRD";"FEBRERO";"CALLE";"V";"4";"En la 2ª Planta del edificio";"";"";"ubicada en el Centro Cultural Jose Luis López Vázquez";"MADRID";"MADRID";"28022";"REJAS";"SAN BLAS-CANILLEJAS";"451431";"4477509";"40.446818592300296";"-3.572741163820915";"913 293 900";"";"";"/contenido/entidadesYorganismos/SalasEstudioLectura"; 
4813757;"Sala de estudio Julio Cortázar (Moncloa-Aravaca)";"";"De lunes a viernes de 9 a 21 horas. Sábados, domingos y festivos, de 10 a 14 horas y de 15 a 21 horas.San Isidro: De 10 a 14 y de 15 a 21 horas.";"";"Metro: Valdezarza y Antonio Machado (línea 7).Bus: 127, 132, 126.";"Puestos de lectura: 125.Zona wifi.";"1";"http://www.madrid.es/sites/v/index.jsp?vgnextchannel=bfa48ab43d6bb410VgnVCM100000171f5a0aRCRD&vgnextoid=53918917a2058110VgnVCM2000000c205a0aRCRD";"ANTONIO MACHADO";"CALLE";"V";"20";"";"";"";"Ubicada en el Centro Cultural Julio Cortázar";"MADRID";"MADRID";"28035";"VALDEZARZA";"MONCLOA-ARAVACA";"438998";"4479816";"40.46678159096302";"-3.7195669111891703";"913 734 375";"";"";"/contenido/entidadesYorganismos/SalasEstudioLectura"; 
4815257;"Sala de estudio Los Rosales";"";"Consultar telefónicamente.";"Puestos de lectura: 32";"Bus: 85 Renfe: Villaverde Bajo";"";"1";"http://www.madrid.es/sites/v/index.jsp?vgnextchannel=bfa48ab43d6bb410VgnVCM100000171f5a0aRCRD&vgnextoid=1bcbc1e158558110VgnVCM1000000b205a0aRCRD";"LOS ROSALES";"AVENIDA";"V";"133";"";"";"";"";"MADRID";"MADRID";"28021";"BUTARQUE";"VILLAVERDE";"442592";"4467116";"40.35074797433515";"-3.6773064421969233";"917 109 273";"";"";"/contenido/entidadesYorganismos/SalasEstudioLectura"; 
6468021;"Sala de estudio Luis García Berlanga (Tetuán)";"";"De lunes a domingo, de 9 a 21 horas (festivos cerrado).";"Puestos de lectura: 98Zona wifi";"Metro: Valdeacederas (línea 1)Bus: 49 , 66, 124";"";"1";"http://www.madrid.es/sites/v/index.jsp?vgnextchannel=bfa48ab43d6bb410VgnVCM100000171f5a0aRCRD&vgnextoid=f5abe23a26bd7310VgnVCM1000000b205a0aRCRD";"VIÑA VIRGEN";"CALLE";"V";"2";"";"";"";"";"MADRID";"MADRID";"28029";"ALMENARA";"TETUAN";"441159";"4479632";"40.46527083469685";"-3.6940726509061683";"915 133 253";"";"";"/contenido/entidadesYorganismos/SalasEstudioLectura"; 
4812602;"Sala de estudio Luis Gonzaga (Chamartín)";"";"De lunes a domingo, 9 a 21:30 horas. Cerrado: 1 a 25 de agosto. Fuera de este horario el centro permanecerá abierto durante la celebración de las actividades que se programen.";"Puestos de lectura: 96Zona wifi";"Metro: Cruz del Rayo (línea 9).Bus: 29, 52, 1BICIMAD: Estación 146 (calle María Francisca, 1)";"";"1";"http://www.madrid.es/sites/v/index.jsp?vgnextchannel=bfa48ab43d6bb410VgnVCM100000171f5a0aRCRD&vgnextoid=e653d0a471148110VgnVCM1000000b205a0aRCRD";"PRINCIPE DE VERGARA";"CALLE";"V";"142";"";"";"";"ubicada en el Centro Sociocultural Luis Gonzaga";"MADRID";"MADRID";"28002";"CIUDAD JARDIN";"CHAMARTIN";"442496";"4477359";"40.44489723228663";"-3.6780972922453685";"915 886 596 / 885 219";"";"";"/contenido/entidadesYorganismos/SalasEstudioLectura"; 
5753512;"Sala de estudio Maestro Alonso (Salamanca)";"";"De lunes a viernes,  de 10:30 a 13:30 y de 17 a 20 horas.Verano (15 Junio a 15 Septiembre): cerrada, excepto período de exámenes.Habilitado todo el verano para lectura de prensa.";"";"Metro: Ventas (líneas 5, 2)Bus: 21, 53, 38, 106, 110, 146, 210";"Puestos de lectura: 26Zona wifi";"1";"http://www.madrid.es/sites/v/index.jsp?vgnextchannel=bfa48ab43d6bb410VgnVCM100000171f5a0aRCRD&vgnextoid=e894be85b37a9210VgnVCM1000000b205a0aRCRD";"MAESTRO ALONSO";"CALLE";"V";"6";"";"";"";"(ubicada en el Centro Cultural Maestro Alonso)";"MADRID";"MADRID";"28028";"FUENTE DEL BERRO";"SALAMANCA";"443605";"4475629";"40.42938854032785";"-3.664855511110751";"913 560 807 / 917 268 800";"";"";"/contenido/entidadesYorganismos/SalasEstudioLectura"; 
4815260;"Sala de estudio Marconi";"";"Consultar telefónicamente.";"Puestos de lectura: 16";"Bus: 79";"";"0";"http://www.madrid.es/sites/v/index.jsp?vgnextchannel=bfa48ab43d6bb410VgnVCM100000171f5a0aRCRD&vgnextoid=fcffc1e158558110VgnVCM1000000b205a0aRCRD";"COLONIA MARCONI";"ACCESO";"V";"4";"";"";"";"";"MADRID";"MADRID";"28021";"SAN ANDRES";"VILLAVERDE";"440582";"4465356";"40.334751832113774";"-3.700809560921597";"917 100 232";"";"";"/contenido/entidadesYorganismos/SalasEstudioLectura"; 
5753637;"Sala de estudio Montecarmelo (Fuencarral - El Pardo)";"";"De lunes a sábado de 9:30 a 15 horas y de 16 a 20:30 horasDomingos y festivos de 10 a 14:30 horasAgosto cerrado 24, 25 y 31 de diciembre, 1 y 6 de enero cerradoTeléfono: 917 364 151";"Puestos de lectura: 21";"Bus: 134, 178";"";"1";"http://www.madrid.es/sites/v/index.jsp?vgnextchannel=bfa48ab43d6bb410VgnVCM100000171f5a0aRCRD&vgnextoid=ae87964bd47a9210VgnVCM1000000b205a0aRCRD";"Santuario de Valverde";"Avenida";"T";"77";"";"";"";"";"MADRID";"MADRID";"28049";"EL GOLOSO";"FUENCARRAL-EL PARDO";"442001";"4485504";"40.51635495615339";"-3.685946562681175";"917 364 151";"";"";"/contenido/entidadesYorganismos/SalasEstudioLectura"; 
10751094;"Sala de estudio Motilla del Palancar (Hortaleza)";"";"De lunes a domingos y festivos, de 9 a 22 horas.";"Puestos de lectura: 60Wifi";"Metro: Canillas (línea 4)Bus: 73, 120, 112, 153";"";"0";"http://www.madrid.es/sites/v/index.jsp?vgnextchannel=bfa48ab43d6bb410VgnVCM100000171f5a0aRCRD&vgnextoid=f2114531d18a4610VgnVCM1000001d4a900aRCRD";"MOTILLA DEL PALANCAR";"CALLE";"V";"13";"local bajo";"";"";"posterior, con vuelta a calle Pedro Alonso";"MADRID";"MADRID";"28043";"CANILLAS";"HORTALEZA";"446308";"4479597";"40.46532067984838";"-3.633321598436636";"683 498 715";"";"";"/contenido/entidadesYorganismos/SalasEstudioLectura"; 
4814223;"Sala de estudio Oporto (Carabanchel)";"";"De lunes a sábado, de 8:30 a 21:30 horas. Domingos, de 11 a 14:30 horas.Agosto cerrado.";"Puestos de lectura: 48Zona wifi";"Metro: Oporto (líneas 5 y 6) , Opañel (línea 6)Bus: 55, 81, 108, 118, 247";"";"1";"http://www.madrid.es/sites/v/index.jsp?vgnextchannel=bfa48ab43d6bb410VgnVCM100000171f5a0aRCRD&vgnextoid=0295d1a2d9058110VgnVCM1000000b205a0aRCRD";"OPORTO";"AVENIDA";"V";"78";"";"";"";"";"MADRID";"MADRID";"28019";"OPAÑEL";"CARABANCHEL";"438232";"4470949";"40.38684744124125";"-3.727740326743959";"914 603 801";"";"";"/contenido/entidadesYorganismos/SalasEstudioLectura"; 
5753811;"Sala de estudio San Cristóbal";"";"Consultar telefónicamente.";"Puestos de lectura: 40";"Metro: Villaverde Alto (línea 3) Bus: 59, 79";"";"1";"http://www.madrid.es/sites/v/index.jsp?vgnextchannel=bfa48ab43d6bb410VgnVCM100000171f5a0aRCRD&vgnextoid=4ae90a3bb87a9210VgnVCM1000000b205a0aRCRD";"PINAZO";"PLAZA";"V";"9";"";"";"";"";"MADRID";"MADRID";"28021";"SAN CRISTOBAL";"VILLAVERDE";"441384";"4466229";"40.34267317099495";"-3.6914487380508842";"917 100 410";"";"";"/contenido/entidadesYorganismos/SalasEstudioLectura"; 
6478893;"Sala de estudio Sanchinarro (Hortaleza)";"";"De lunes a viernes: 9 a 21:45 horas.Sábados, domingos y festivos: 10 a 22 horas.  Horario especial ampliado del 3 de mayo al 30 de junio de 2019:  De lunes a viernes no festivos de 9 a 23:45 horas. Fines de semana y festivos de 10 a 23:45 horas";"Puestos de lectura: 176Wifi";"Bus: 172, 173, 174";"";"1";"http://www.madrid.es/sites/v/index.jsp?vgnextchannel=bfa48ab43d6bb410VgnVCM100000171f5a0aRCRD&vgnextoid=459b10e528908310VgnVCM1000000b205a0aRCRD";"PRINCESA DE EBOLI";"CALLE";"V";"29";"";"";"";"ubicada en el Centro Cultural Sanchinarro";"MADRID";"MADRID";"28050";"VALDEFUENTES";"HORTALEZA";"444469";"4482391";"40.49035310157377";"-3.655261744717257";"915 000 603";"";"";"/contenido/entidadesYorganismos/SalasEstudioLectura"; 
4815268;"Sala de estudio Santa Petronila";"";"Consultar telefónicamente.";"Puestos de lectura: 15";"Metro: Villaverde Bajo Cruce (línea 3)  Bus: 59, 79, 85 Renfe: Villaverde Bajo";"";"1";"http://www.madrid.es/sites/v/index.jsp?vgnextchannel=bfa48ab43d6bb410VgnVCM100000171f5a0aRCRD&vgnextoid=5b65c1e158558110VgnVCM1000000b205a0aRCRD";"MARIA MARTINEZ OVIOL";"CALLE";"V";"12";"";"";"";"";"MADRID";"MADRID";"28021";"LOS ROSALES";"VILLAVERDE";"441386";"4467139";"40.35087114162283";"-3.691508909255186";"917 109 710";"";"";"/contenido/entidadesYorganismos/SalasEstudioLectura"; 
4815389;"Sala de estudio Valdebernardo (Vicálvaro)";"";"Sábados, domingos y festivos de 9 a 13:45 y de 16 a 19:45.Cerrado agosto.Fuera de este horario el centro permanecerá abierto durante la celebración de las actividades que se programen.";"";"Metro: Valdebernardo (línea 9)Bus: 8, 71, 130";"Dos salas de estudio. Puestos de lectura: 60Zona wifi";"1";"http://www.madrid.es/sites/v/index.jsp?vgnextchannel=bfa48ab43d6bb410VgnVCM100000171f5a0aRCRD&vgnextoid=1dc9c0e48a558110VgnVCM1000000b205a0aRCRD";"INDALECIO PRIETO";"BULEVAR";"V";"21";"";"";"";"";"MADRID";"MADRID";"28032";"CASCO H.VICALVARO";"VICALVARO";"447278";"4472321";"40.39982891410407";"-3.621281890570377";"913 016 460";"";"";"/contenido/entidadesYorganismos/SalasEstudioLectura"; 
10107814;"Sala de estudio y lectura Arquitecto Juan de Herrera (Latina)";"";"De lunes a viernes de 9:30 a 21 horas. Sábados de 10 a 13 horas. Horario de verano: de lunes a viernes de 9:30 a 20 horas. Sábados de julio y septiembre cerrado.Agosto cerrado.";"Puestos de lectura: 20Zona wifi";"Bus: 119, 138";"";"1";"http://www.madrid.es/sites/v/index.jsp?vgnextchannel=bfa48ab43d6bb410VgnVCM100000171f5a0aRCRD&vgnextoid=6a6c61366ded5510VgnVCM1000001d4a900aRCRD";"MARIA DEL CARMEN";"CALLE";"V";"65";"";"";"";"";"MADRID";"MADRID";"28011";"PUERTA DEL ANGEL";"LATINA";"437830";"4473132";"40.40647389284976";"-3.7327010920242043";"914 649 304";"";"";"/contenido/entidadesYorganismos/SalasEstudioLectura"; 
10107379;"Sala de estudio y lectura Cayetano Pando (Latina)";"";"Horario habitual: de lunes a viernes, de 8 a 22 horas. Sábados, de 9 a 14 horas. Cerrado de 15 de julio a 15 de agosto.";"Puestos de lectura: 40.";"Metro: Lucero y Laguna (línea 6)Cercanías Renfe: Laguna (línea C5). Bus: 31, 138.";"";"0";"http://www.madrid.es/sites/v/index.jsp?vgnextchannel=bfa48ab43d6bb410VgnVCM100000171f5a0aRCRD&vgnextoid=f565aea7089d5510VgnVCM1000001d4a900aRCRD";"CAYETANO PANDO";"CALLE";"V";"8";"";"";"";"";"MADRID";"MADRID";"28047";"LUCERO";"LATINA";"436652";"4472734";"40.40281371620686";"-3.746531777787898";"915 264 475";"";"";"/contenido/entidadesYorganismos/SalasEstudioLectura"; 
10107362;"Sala de estudio y lectura Cebreros (Latina)";"";"Horario habitual: de lunes a viernes, de 8 a 22 horas y sábados, de 9 a 14 horas. Cerrado de 15 de julio a 15 de agosto.";"Puestos de lectura: 63.";"Metro: Lucero (línea 6), Batán (línea 10).Bus: 138, 36, 39, 65.";"";"0";"http://www.madrid.es/sites/v/index.jsp?vgnextchannel=bfa48ab43d6bb410VgnVCM100000171f5a0aRCRD&vgnextoid=7d52aea7089d5510VgnVCM1000001d4a900aRCRD";"CEBREROS";"CALLE";"V";"66";"";"";"";"";"MADRID";"MADRID";"28011";"LUCERO";"LATINA";"436490";"4472992";"40.40512065478807";"-3.748466414403756";"914 796 964";"";"";"/contenido/entidadesYorganismos/SalasEstudioLectura"; 
8041433;"Sala de estudio y lectura Centro Sociocultural Latina (Latina)";"";"De lunes a viernes, 9 a 21 horas. Sábados, de 9 a 14 horas.Cerrado agosto (excepto última semana).";"Puestos de lectura: 44.Zona wifi.";"Bus: 155.Cercanías Renfe: Fanjul (C5).";"";"1";"http://www.madrid.es/sites/v/index.jsp?vgnextchannel=bfa48ab43d6bb410VgnVCM100000171f5a0aRCRD&vgnextoid=9a9e1f61dd74d410VgnVCM1000000b205a0aRCRD";"RODRIGO DE ARANA";"CALLE";"V";"50";"";"";"";"";"MADRID";"MADRID";"28044";"LAS AGUILAS";"LATINA";"434982";"4470177";"40.3796456555054";"-3.7659493469010017";"915 095 470";"";"";"/contenido/entidadesYorganismos/SalasEstudioLectura"; 
10107702;"Sala de estudio y lectura Escritor Pedro de Répide (Latina)";"";"De lunes a viernes de 9:30 a 21 horas. Sábados de 10 a 13 horas. Verano: de lunes a viernes de 9:30 a 20 horas. Sábados de julio y septiembre cerrado.Agosto cerrado.";"Puestos de lectura: 16Zona wifi";"Bus: 119, 138";"";"1";"http://www.madrid.es/sites/v/index.jsp?vgnextchannel=bfa48ab43d6bb410VgnVCM100000171f5a0aRCRD&vgnextoid=5e0861366ded5510VgnVCM1000001d4a900aRCRD";"MARIA DEL CARMEN";"CALLE";"V";"65";"";"";"";"";"MADRID";"MADRID";"28011";"PUERTA DEL ANGEL";"LATINA";"437830";"4473132";"40.40647389284976";"-3.7327010920242043";"914 649 304";"";"";"/contenido/entidadesYorganismos/SalasEstudioLectura"; 
8041409;"Sala de estudio y lectura José Luis Sampedro (Latina)";"";"Habitual: de lunes a viernes, de 9 a 21:30 horas, sábados de 9 a 13:30 horas.Verano: de lunes a viernes, de 9 a 20:30 horas, sábados de 9 a 13:30 horas.Cerrado del 1 al 25 agosto.";"Puestos de lectura: 54.Zona wifi.";"Metro: Laguna (línea 6), Lucero (línea 6).Bus: 55.Renfe: Laguna (C5)";"";"1";"http://www.madrid.es/sites/v/index.jsp?vgnextchannel=bfa48ab43d6bb410VgnVCM100000171f5a0aRCRD&vgnextoid=a3e91f61dd74d410VgnVCM1000000b205a0aRCRD";"CASTROSERNA";"CALLE";"V";"4";"";"";"";"";"MADRID";"MADRID";"28047";"LUCERO";"LATINA";"436428";"4472623";"40.40179182285599";"-3.7491601722547996";"915 267 820 / 915 267 821";"";"";"/contenido/entidadesYorganismos/SalasEstudioLectura"; 
10107309;"Sala de estudio y lectura Maqueda (Latina)";"";"Horario habitual: de lunes a viernes, de 8 a 22 horas y sábados, de 9 a 14 horas.Cerrado de 15 de julio a 15 de agosto.";"Puestos de lectura: 68.";"Metro: Campamento (línea 5), Empalme (línea 10). Bus: 121, 25.";"";"0";"http://www.madrid.es/sites/v/index.jsp?vgnextchannel=bfa48ab43d6bb410VgnVCM100000171f5a0aRCRD&vgnextoid=afacaea7089d5510VgnVCM1000001d4a900aRCRD";"MAQUEDA";"CALLE";"V";"5";"";"";"";"";"MADRID";"MADRID";"28024";"ALUCHE";"LATINA";"435108";"4471845";"40.39468264667264";"-3.7646257427725063";"917 110 369";"";"";"/contenido/entidadesYorganismos/SalasEstudioLectura"; 
8041448;"Sala de estudio y lectura Miguel Hernández (Latina)";"";"De lunes a viernes de 9 a 22 horas, sábados de 9 a 14 horas.Julio, agosto (cerrado del 1 al 26) y septiembre, de lunes a viernes, de 9 a 21 horas.";"Puestos de lectura: 42.";"Bus: 34, 117, 139, 39.Cercanías Renfe: Las Aguilas (C5).";"";"1";"http://www.madrid.es/sites/v/index.jsp?vgnextchannel=bfa48ab43d6bb410VgnVCM100000171f5a0aRCRD&vgnextoid=b3431f61dd74d410VgnVCM1000000b205a0aRCRD";"SERRADILLA";"CALLE";"V";"13";"";"";"";"";"MADRID";"MADRID";"28044";"LAS AGUILAS";"LATINA";"433622";"4470101";"40.378853797128336";"-3.7819616113032115";"917 066 300";"";"";"/contenido/entidadesYorganismos/SalasEstudioLectura"; 
10107172;"Sala de estudio y lectura Paseo de Extremadura (Latina)";"";"Horario habitual: de lunes a viernes, de 8 a 22 horas y sábados, de 9 a 14 horas. Cerrado de 15 de julio a 15 de agosto.";"Puestos de lectura: 48.";"Metro: Alto de Extremadura (línea 6). Bus: 31, 33, 36, 39, 65.";"";"0";"http://www.madrid.es/sites/v/index.jsp?vgnextchannel=bfa48ab43d6bb410VgnVCM100000171f5a0aRCRD&vgnextoid=ae857f23530d5510VgnVCM2000001f4a900aRCRD";"EXTREMADURA";"PASEO";"V";"128";"";"";"";"";"MADRID";"MADRID";"28011";"PUERTA DEL ANGEL";"LATINA";"437569";"4473648";"40.411111789264716";"-3.7358157416157276";"914 634 249";"";"";"/contenido/entidadesYorganismos/SalasEstudioLectura"; 
8041514;"Sala de estudio y lectura Sara Montiel (Latina)";"";"Horario habitual: de lunes a viernes de 9 a 21:30 horas. Sábados de 9:30 a 13:30 horas.Verano: de lunes a viernes, de 9:30 a 20:45 horas. Cerrado agosto, excepto ultima semana.";"Puestos de lectura: 54.Zona wifi.";"Metro: Colonia Jardín (líneas 10, ML2, ML3).Bus: 65, H.";"";"1";"http://www.madrid.es/sites/v/index.jsp?vgnextchannel=bfa48ab43d6bb410VgnVCM100000171f5a0aRCRD&vgnextoid=2cfd68daae74d410VgnVCM1000000b205a0aRCRD";"BOADILLA DEL MONTE";"CARRETERA";"V";"40";"";"";"";"";"MADRID";"MADRID";"28024";"CAMPAMENTO";"LATINA";"434937";"4472307";"40.398830008074896";"-3.7666969961921692";"915 120 890";"";"";"/contenido/entidadesYorganismos/SalasEstudioLectura"; 
7989332;"Sala de estudio y lectura del Centro Cultural Las Californias (Retiro)";"";"De lunes a viernes, de 9 a 14 y de 16 a 22 horas.Sábados, de 10 a 14 y de 16 a 21 horas.Domingos y festivos: cerrado.";"Puestos de lectura: 68.Zona wifi.Atención básica en lengua de signos (de lunes a viernes, por la mañana).";"Metro: Puente de Vallecas (línea 1) , Mendez Álvaro (línea 6).Bus: 113, 148.Cercanías RENFE: Mendez Álvaro Estación Sur (líneas C1, C5, C7, C10, Regional).";"";"1,4";"http://www.madrid.es/sites/v/index.jsp?vgnextchannel=bfa48ab43d6bb410VgnVCM100000171f5a0aRCRD&vgnextoid=1626bbe4eb1cc410VgnVCM1000000b205a0aRCRD";"LUIS PEIDRO";"CALLE";"V";"2";"";"";"";"ubicada en el Centro Cultural Luis Peidró";"MADRID";"MADRID";"28007";"ADELFAS";"RETIRO";"442841";"4472041";"40.39701377469427";"-3.6735395596361586";"915 016 942";"";"";"/contenido/entidadesYorganismos/SalasEstudioLectura"; 
4815242;"Sala de estudio Ágata";"";"Consultar telefónicamente.";"Puestos de lectura: 25";"Bus: 22, 79, 86, 130, 131";"";"1";"http://www.madrid.es/sites/v/index.jsp?vgnextchannel=bfa48ab43d6bb410VgnVCM100000171f5a0aRCRD&vgnextoid=8a760c4d87558110VgnVCM1000000b205a0aRCRD";"DOCTOR MARTIN AREVALO";"CALLE";"V";"2";"";"";"";"";"MADRID";"MADRID";"28021";"SAN ANDRES";"VILLAVERDE";"439937";"4466650";"40.34636268334182";"-3.708524395897377";"917 109 300";"";"";"/contenido/entidadesYorganismos/SalasEstudioLectura"; 
4815493;"Sala de lectura Pilares (Barajas)";"";"De lunes a domingo, de 8 a 24 horas.No cierra ningún día";"Puestos de lectura: 72";"Metro: Barajas (línea 8)Bus: 101, 105, 115";"";"1";"http://www.madrid.es/sites/v/index.jsp?vgnextchannel=bfa48ab43d6bb410VgnVCM100000171f5a0aRCRD&vgnextoid=747e48136c558110VgnVCM1000000b205a0aRCRD";"LOS PILARES";"CALLE";"V";"3";"";"";"";"";"MADRID";"MADRID";"28042";"CASCO H.BARAJAS";"BARAJAS";"451023";"4480645";"40.47504564286";"-3.577805996745736";"915 888 103";"";"";"/contenido/entidadesYorganismos/SalasEstudioLectura"; 
5753771;"Salas de estudio Centro Cultural Pozo del tío Raimundo (Puente de Vallecas)";"";"De lunes a viernes, de 15 a 18 horas.Sábados, de 10  a 13:45 y de 16 a 19:45 horas.Domingos y festivos, de 10 a 13:45 horas.Agosto cerrado.";"Puestos de lectura: 40Zona wifi";"Renfe: El PozoBus: 24, 102, 103, 310";"";"1";"http://www.madrid.es/sites/v/index.jsp?vgnextchannel=bfa48ab43d6bb410VgnVCM100000171f5a0aRCRD&vgnextoid=9a831c35f67a9210VgnVCM1000000b205a0aRCRD";"DE LAS GLORIETAS";"AVENIDA";"V";"19";"";"";"";"Ubicada en el Centro Cultural El Pozo";"MADRID";"MADRID";"28053";"ENTREVIAS";"PUENTE DE VALLECAS";"443950";"4469433";"40.3735856436473";"-3.6602546064905397";"917 866 372 / 917 866 644";"";"";"/contenido/entidadesYorganismos/SalasEstudioLectura"; 
7988710;"Salas de estudio Centro cultural Mercado de Ibiza (Retiro)";"";"De lunes a viernes, de 9 a 14 y de 16.30 a 20.30 horas. Sábados de 9 a 14 horas.Agosto cerrado.";"Dos salas de estudio y lectura: Puestos de lectura: 38 y 18.Zona wifi.Atención básica en lengua de signos (mañanas de lunes a viernes).";"Metro: Ibiza (línea 9).Bus: 15, 2, 215, 26, 61, 63, C1, C2, 152, 20.Bicimad: Estación 181 (calle ibiza, 18).";"";"1";"http://www.madrid.es/sites/v/index.jsp?vgnextchannel=bfa48ab43d6bb410VgnVCM100000171f5a0aRCRD&vgnextoid=ddfec642771cc410VgnVCM1000000b205a0aRCRD";"IBIZA";"CALLE";"V";"8";"1ª";"";"";"ubicada en el Centro Cutural Mercado de Ibiza";"MADRID";"MADRID";"28009";"IBIZA";"RETIRO";"442533";"4474392";"40.41817164604735";"-3.6773809757021385";"915 572 601";"";"";"/contenido/entidadesYorganismos/SalasEstudioLectura"; 
8071910;"Salas de estudio Miguel de Cervantes (San Blas - Canillejas)";"";"De lunes a viernes, de 10 a 21 horas.Sábados, domingos y festivos, de 10 a 14:30  y de 16:30 a 20 horas.";"";"Bus: 48, 140, 28";"Puestos de lectura: 126Zona wifi";"1";"http://www.madrid.es/sites/v/index.jsp?vgnextchannel=bfa48ab43d6bb410VgnVCM100000171f5a0aRCRD&vgnextoid=4ef476e159ead410VgnVCM1000000b205a0aRCRD";"ALIAGA";"CALLE";"V";"5";"";"";"";"ubicada en el Centro Cultural Miguel de Cervantes";"MADRID";"MADRID";"28022";"CANILLEJAS";"SAN BLAS-CANILLEJAS";"448148";"4476402";"40.43664778776818";"-3.611362970564875";"917 430 078";"";"";"/contenido/entidadesYorganismos/SalasEstudioLectura"; 
